{
  "type": "FeatureCollection",
  "features": [
    {
      "type": "Feature",
      "properties": {
        "norad_id": 40010,
        "name": "KAZEOSAT 2",
        "group": "resource",
        "lat": 52.42793166607218,
        "lon": 35.01521749881337,
        "alt_km": 602.7215642753645,
        "timestamp": "2025-12-27T12:55:14.144019+00:00",
        "meta_object_name": "KAZEOSAT 2",
        "meta_object_id": "2014-033A",
        "meta_epoch": "2025-12-27T07:30:01.755648",
        "meta_mean_motion": 14.85190012,
        "meta_eccentricity": 0.00089116,
        "meta_inclination": 97.5497,
        "meta_ra_of_asc_node": 204.8743,
        "meta_arg_of_pericenter": 157.534,
        "meta_mean_anomaly": 202.6268,
        "meta_ephemeris_type": 0,
        "meta_classification_type": "U",
        "meta_norad_cat_id": 40010,
        "meta_element_set_no": 999,
        "meta_rev_at_epoch": 62344,
        "meta_bstar": 6.9584198e-05,
        "meta_mean_motion_dot": 5.46e-06,
        "meta_mean_motion_ddot": 0,
        "tle_line1": "1 40010U 14033A   25361.31252032  .00000546  00000+0  69584-4 0  9991",
        "tle_line2": "2 40010  97.5497 204.8743 0008911 157.5340 202.6268 14.85190012623446"
      },
      "geometry": {
        "type": "Point",
        "coordinates": [
          35.01521749881337,
          52.42793166607218
        ]
      }
    },
    {
      "type": "Feature",
      "properties": {
        "norad_id": 40011,
        "name": "HODOYOSHI-4",
        "group": "resource",
        "lat": -21.4662393112362,
        "lon": -167.32101863664596,
        "alt_km": 627.9369372349292,
        "timestamp": "2025-12-27T12:55:14.144030+00:00",
        "meta_object_name": "HODOYOSHI-4",
        "meta_object_id": "2014-033B",
        "meta_epoch": "2025-12-27T06:33:38.003328",
        "meta_mean_motion": 14.87531387,
        "meta_eccentricity": 0.00244127,
        "meta_inclination": 97.5414,
        "meta_ra_of_asc_node": 189.441,
        "meta_arg_of_pericenter": 152.4378,
        "meta_mean_anomaly": 207.814,
        "meta_ephemeris_type": 0,
        "meta_classification_type": "U",
        "meta_norad_cat_id": 40011,
        "meta_element_set_no": 999,
        "meta_rev_at_epoch": 62324,
        "meta_bstar": 0.00015269208,
        "meta_mean_motion_dot": 1.341e-05,
        "meta_mean_motion_ddot": 0,
        "tle_line1": "1 40011U 14033B   25361.27335652  .00001341  00000+0  15269-3 0  9991",
        "tle_line2": "2 40011  97.5414 189.4410 0024412 152.4378 207.8140 14.87531387623244"
      },
      "geometry": {
        "type": "Point",
        "coordinates": [
          -167.32101863664596,
          -21.4662393112362
        ]
      }
    },
    {
      "type": "Feature",
      "properties": {
        "norad_id": 40013,
        "name": "DEIMOS-2",
        "group": "resource",
        "lat": 66.9132616362078,
        "lon": -141.41630351803323,
        "alt_km": 581.2166563404944,
        "timestamp": "2025-12-27T12:55:14.144040+00:00",
        "meta_object_name": "DEIMOS-2",
        "meta_object_id": "2014-033D",
        "meta_epoch": "2025-12-27T06:10:57.650016",
        "meta_mean_motion": 14.93032625,
        "meta_eccentricity": 0.0001447,
        "meta_inclination": 97.6049,
        "meta_ra_of_asc_node": 236.5788,
        "meta_arg_of_pericenter": 110.0788,
        "meta_mean_anomaly": 250.0588,
        "meta_ephemeris_type": 0,
        "meta_classification_type": "U",
        "meta_norad_cat_id": 40013,
        "meta_element_set_no": 999,
        "meta_rev_at_epoch": 61206,
        "meta_bstar": 0.0001547068,
        "meta_mean_motion_dot": 1.555e-05,
        "meta_mean_motion_ddot": 0,
        "tle_line1": "1 40013U 14033D   25361.25761169  .00001555  00000+0  15471-3 0  9999",
        "tle_line2": "2 40013  97.6049 236.5788 0001447 110.0788 250.0588 14.93032625612063"
      },
      "geometry": {
        "type": "Point",
        "coordinates": [
          -141.41630351803323,
          66.9132616362078
        ]
      }
    },
    {
      "type": "Feature",
      "properties": {
        "norad_id": 40015,
        "name": "HODOYOSHI-3",
        "group": "resource",
        "lat": 57.87508180776689,
        "lon": -0.9578532202331134,
        "alt_km": 603.0629698392086,
        "timestamp": "2025-12-27T12:55:14.144051+00:00",
        "meta_object_name": "HODOYOSHI-3",
        "meta_object_id": "2014-033F",
        "meta_epoch": "2025-12-27T05:54:18.088416",
        "meta_mean_motion": 14.8485698,
        "meta_eccentricity": 0.00326861,
        "meta_inclination": 97.6206,
        "meta_ra_of_asc_node": 166.4512,
        "meta_arg_of_pericenter": 198.688,
        "meta_mean_anomaly": 161.3138,
        "meta_ephemeris_type": 0,
        "meta_classification_type": "U",
        "meta_norad_cat_id": 40015,
        "meta_element_set_no": 999,
        "meta_rev_at_epoch": 62210,
        "meta_bstar": 0.00021539954,
        "meta_mean_motion_dot": 1.795e-05,
        "meta_mean_motion_ddot": 0,
        "tle_line1": "1 40015U 14033F   25361.24604269  .00001795  00000+0  21540-3 0  9997",
        "tle_line2": "2 40015  97.6206 166.4512 0032686 198.6880 161.3138 14.84856980622109"
      },
      "geometry": {
        "type": "Point",
        "coordinates": [
          -0.9578532202331134,
          57.87508180776689
        ]
      }
    },
    {
      "type": "Feature",
      "properties": {
        "norad_id": 40053,
        "name": "SPOT 7",
        "group": "resource",
        "lat": 3.256919724098171,
        "lon": 62.80754962883225,
        "alt_km": 693.0591651936666,
        "timestamp": "2025-12-27T12:55:14.144061+00:00",
        "meta_object_name": "SPOT 7",
        "meta_object_id": "2014-034A",
        "meta_epoch": "2025-12-27T07:58:25.226688",
        "meta_mean_motion": 14.60752166,
        "meta_eccentricity": 0.00015078,
        "meta_inclination": 98.0882,
        "meta_ra_of_asc_node": 63.0699,
        "meta_arg_of_pericenter": 81.0012,
        "meta_mean_anomaly": 279.1359,
        "meta_ephemeris_type": 0,
        "meta_classification_type": "U",
        "meta_norad_cat_id": 40053,
        "meta_element_set_no": 999,
        "meta_rev_at_epoch": 61204,
        "meta_bstar": 0.00013274264,
        "meta_mean_motion_dot": 6.02e-06,
        "meta_mean_motion_ddot": 0,
        "tle_line1": "1 40053U 14034A   25361.33223642  .00000602  00000+0  13274-3 0  9993",
        "tle_line2": "2 40053  98.0882  63.0699 0001507  81.0012 279.1359 14.60752166612044"
      },
      "geometry": {
        "type": "Point",
        "coordinates": [
          62.80754962883225,
          3.256919724098171
        ]
      }
    },
    {
      "type": "Feature",
      "properties": {
        "norad_id": 40072,
        "name": "SKYSAT-B",
        "group": "resource",
        "lat": -80.52866037440069,
        "lon": 7.886135878705045,
        "alt_km": 618.1135455299136,
        "timestamp": "2025-12-27T12:55:14.144071+00:00",
        "meta_object_name": "SKYSAT-B",
        "meta_object_id": "2014-037D",
        "meta_epoch": "2025-12-26T19:32:42.335232",
        "meta_mean_motion": 14.87377636,
        "meta_eccentricity": 0.00068783,
        "meta_inclination": 98.363,
        "meta_ra_of_asc_node": 305.2652,
        "meta_arg_of_pericenter": 111.2738,
        "meta_mean_anomaly": 248.9212,
        "meta_ephemeris_type": 0,
        "meta_classification_type": "U",
        "meta_norad_cat_id": 40072,
        "meta_element_set_no": 999,
        "meta_rev_at_epoch": 62033,
        "meta_bstar": 0.00022123811,
        "meta_mean_motion_dot": 1.939e-05,
        "meta_mean_motion_ddot": 0,
        "tle_line1": "1 40072U 14037D   25360.81437888  .00001939  00000+0  22124-3 0  9996",
        "tle_line2": "2 40072  98.3630 305.2652 0006878 111.2738 248.9212 14.87377636620333"
      },
      "geometry": {
        "type": "Point",
        "coordinates": [
          7.886135878705045,
          -80.52866037440069
        ]
      }
    },
    {
      "type": "Feature",
      "properties": {
        "norad_id": 40115,
        "name": "WORLDVIEW-3 (WV-3)",
        "group": "resource",
        "lat": 37.030154605364324,
        "lon": 67.64399899898663,
        "alt_km": 611.9033895043794,
        "timestamp": "2025-12-27T12:55:14.144081+00:00",
        "meta_object_name": "WORLDVIEW-3 (WV-3)",
        "meta_object_id": "2014-048A",
        "meta_epoch": "2025-12-27T04:39:53.972352",
        "meta_mean_motion": 14.84681685,
        "meta_eccentricity": 0.00021189,
        "meta_inclination": 97.8762,
        "meta_ra_of_asc_node": 73.2985,
        "meta_arg_of_pericenter": 126.273,
        "meta_mean_anomaly": 233.868,
        "meta_ephemeris_type": 0,
        "meta_classification_type": "U",
        "meta_norad_cat_id": 40115,
        "meta_element_set_no": 999,
        "meta_rev_at_epoch": 61638,
        "meta_bstar": 0.00015872169,
        "meta_mean_motion_dot": 1.29e-05,
        "meta_mean_motion_ddot": 0,
        "tle_line1": "1 40115U 14048A   25361.19437468  .00001290  00000+0  15872-3 0  9994",
        "tle_line2": "2 40115  97.8762  73.2985 0002118 126.2730 233.8680 14.84681685616384"
      },
      "geometry": {
        "type": "Point",
        "coordinates": [
          67.64399899898663,
          37.030154605364324
        ]
      }
    }
  ]
}